KUIPER-00601            
1 69285U 26118U   26158.25005787  .00061217  00000+0  16384-2 0  9994
2 69285  51.8700 101.3122 0004859 120.7973 250.5857 15.37443198  2377
KUIPER-00602            
1 69286U 26118V   26158.25005787  .00061689  00000+0  16283-2 0  9996
2 69286  51.8699 101.2820 0003249 108.3719 278.0163 15.37872389  1306
KUIPER-00603            
1 69287U 26118W   26158.25005787  .00061491  00000+0  16532-2 0  9995
2 69287  51.8667 101.3221 0005666 124.5663 243.6444 15.37296322  2321
KUIPER-00605            
1 69288U 26118X   26158.25005787  .00059621  00000+0  16266-2 0  9992
2 69288  51.8655 101.3519 0007747 129.4376 224.3131 15.36842820  2155
KUIPER-00606            
1 69289U 26118Y   26158.25005787  .00061096  00000+0  16304-2 0  9995
2 69289  51.8692 101.3052 0004725 116.6464 258.6604 15.37533912  2018
KUIPER-00607            
1 69290U 26118Z   26158.25005787  .00060612  00000+0  16343-2 0  9993
2 69290  51.8676 101.3264 0006405 122.8235 242.9177 15.37208491  1975
KUIPER-00608            
1 69291U 26118AA  26158.25005787  .00061626  00000+0  17243-2 0  9990
2 69291  51.8595 101.3849 0009988 140.2908 197.5250 15.36023342  1937
KUIPER-00610            
1 69292U 26118AB  26158.25005787  .00064794  00000+0  16979-2 0  9995
2 69292  51.8719 101.2672 0003030  99.9207 291.0921 15.38074303  1865
KUIPER-00613            
1 69293U 26118AC  26158.25005787  .00066468  00000+0  19036-2 0  9993
2 69293  51.8620 101.4058 0010337 152.4087 174.8900 15.35257306  1303
KUIPER-00618            
1 69294U 26118AD  26158.25005787  .00065387  00000+0  16915-2 0  9996
2 69294  51.8719 101.2420 0002277  63.1166 339.7026 15.38468144  1302
KUIPER-00620            
1 69295U 26118AE  26158.25005787  .00062243  00000+0  16275-2 0  9994
2 69295  51.8714 101.2636 0003036  87.5974 306.0164 15.38159911  2409
STARLINK-37501          
1 69296U 26119A   26158.25005787 -.02500805  00000+0 -14166-1 0  9997
2 69296  97.2829 183.5190 0001788 102.8079 146.8369 15.82330754  2297
STARLINK-37496          
1 69297U 26119B   26158.25005787 -.01032138  00000+0 -59620-2 0  9991
2 69297  97.2836 183.5183 0000933 101.8796 145.7182 15.81184336  2297
STARLINK-37519          
1 69298U 26119C   26158.25005787 -.00824041  00000+0 -45968-2 0  9993
2 69298  97.2834 183.5245 0001659  85.8480 174.8086 15.81401083  2299
STARLINK-37455          
1 69299U 26119D   26158.25005787 -.02474240  00000+0 -13439-1 0  9995
2 69299  97.2831 183.5216 0001775  80.0686 174.9142 15.83180054  2297
STARLINK-37456          
1 69300U 26119E   26158.25005787 -.02528219  00000+0 -13680-1 0  9992
2 69300  97.2828 183.5251 0001549 100.9929 162.4260 15.83342916  2296
STARLINK-37630          
1 69301U 26119F   26158.25005787 -.01523638  00000+0 -85696-2 0  9999
2 69301  97.2830 183.5272 0001348  87.0108 180.4218 15.81932097  2458
STARLINK-37804          
1 69302U 26119G   26158.25005787 -.00743500  00000+0 -41295-2 0  9998
2 69302  97.2832 183.5275 0001092 104.7260 164.7791 15.81299946  2456
STARLINK-37730          
1 69303U 26119H   26158.25005787 -.02456135  00000+0 -13321-1 0  9994
2 69303  97.2831 183.5306 0001596 104.1431 172.1977 15.83188193  2456
STARLINK-37731          
1 69304U 26119J   26158.25005787 -.01554759  00000+0 -87391-2 0  9994
2 69304  97.2832 183.5320 0001994  88.0953 190.1816 15.81996804  2451
STARLINK-37734          
1 69305U 26119K   26158.25005787 -.02441893  00000+0 -13270-1 0  9994
2 69305  97.2833 183.5329 0001501 108.2543 174.1343 15.83126877  2450
STARLINK-37701          
1 69306U 26119L   26158.25005787 -.01812105  00000+0 -10066-1 0  9992
2 69306  97.2833 183.5340 0001428  85.6617 199.1770 15.82228402  2459
STARLINK-37732          
1 69307U 26119M   26158.25005787 -.01577446  00000+0 -88724-2 0  9996
2 69307  97.2834 183.5352 0001884  91.9201 195.4295 15.82027498  2452
STARLINK-37689          
1 69308U 26119N   26158.25005787 -.02454030  00000+0 -12997-1 0  9999
2 69308  97.2831 183.5369 0001346 104.5180 187.5478 15.83687641  2456
STARLINK-37619          
1 69309U 26119P   26158.25005787 -.02452013  00000+0 -13225-1 0  9994
2 69309  97.2831 183.5387 0001558  98.5096 197.2504 15.83299161  2454
STARLINK-37794          
1 69310U 26119Q   26158.25005787 -.02473416  00000+0 -12235-1 0  9996
2 69310  97.2830 183.5418 0001459  86.4916 217.7646 15.85132436  2455
STARLINK-37795          
1 69311U 26119R   26158.25005787 -.02537965  00000+0 -12457-1 0  9993
2 69311  97.2829 183.5421 0001327  98.6407 207.1291 15.85386041  2454
STARLINK-37790          
1 69312U 26119S   26158.25005787 -.02498299  00000+0 -12073-1 0  9994
2 69312  97.2827 183.5442 0001416  93.4107 216.7596 15.85647324  2453
STARLINK-37676          
1 69313U 26119T   26158.25005787 -.02480602  00000+0 -11212-1 0  9998
2 69313  97.2831 183.5470 0001210  89.3606 227.2423 15.86988491  2450
STARLINK-37617          
1 69314U 26119U   26158.25005787 -.02485676  00000+0 -11073-1 0  9990
2 69314  97.2831 183.5480 0001240  97.8666 222.4291 15.87288829  2454
