OBJECT_NAME,OBJECT_ID,EPOCH,MEAN_MOTION,ECCENTRICITY,INCLINATION,RA_OF_ASC_NODE,ARG_OF_PERICENTER,MEAN_ANOMALY,EPHEMERIS_TYPE,CLASSIFICATION_TYPE,NORAD_CAT_ID,ELEMENT_SET_NO,REV_AT_EPOCH,BSTAR,MEAN_MOTION_DOT,MEAN_MOTION_DDOT
KUIPER-00601,2026-118U,2026-06-07T06:00:04.999968,15.37443198,.00048596,51.8700,101.3122,120.7973,250.5857,0,U,69285,999,237,.16383569E-2,.61217E-3,0
KUIPER-00602,2026-118V,2026-06-07T06:00:04.999968,15.37872389,.00032493,51.8699,101.2820,108.3719,278.0163,0,U,69286,999,130,.16283266E-2,.61689E-3,0
KUIPER-00603,2026-118W,2026-06-07T06:00:04.999968,15.37296322,.0005666,51.8667,101.3221,124.5663,243.6444,0,U,69287,999,232,.16532226E-2,.61491E-3,0
KUIPER-00605,2026-118X,2026-06-07T06:00:04.999968,15.36842820,.00077472,51.8655,101.3519,129.4376,224.3131,0,U,69288,999,215,.16265994E-2,.59621E-3,0
KUIPER-00606,2026-118Y,2026-06-07T06:00:04.999968,15.37533912,.00047254,51.8692,101.3052,116.6464,258.6604,0,U,69289,999,201,.16304109E-2,.61096E-3,0
KUIPER-00607,2026-118Z,2026-06-07T06:00:04.999968,15.37208491,.0006405,51.8676,101.3264,122.8235,242.9177,0,U,69290,999,197,.16343322E-2,.60612E-3,0
KUIPER-00608,2026-118AA,2026-06-07T06:00:04.999968,15.36023342,.00099883,51.8595,101.3849,140.2908,197.5250,0,U,69291,999,193,.17242926E-2,.61626E-3,0
KUIPER-00610,2026-118AB,2026-06-07T06:00:04.999968,15.38074303,.00030305,51.8719,101.2672,99.9207,291.0921,0,U,69292,999,186,.16979328E-2,.64794E-3,0
KUIPER-00613,2026-118AC,2026-06-07T06:00:04.999968,15.35257306,.00103371,51.8620,101.4058,152.4087,174.8900,0,U,69293,999,130,.19036207E-2,.66468E-3,0
KUIPER-00618,2026-118AD,2026-06-07T06:00:04.999968,15.38468144,.00022774,51.8719,101.2420,63.1166,339.7026,0,U,69294,999,130,.16915302E-2,.65387E-3,0
KUIPER-00620,2026-118AE,2026-06-07T06:00:04.999968,15.38159911,.00030363,51.8714,101.2636,87.5974,306.0164,0,U,69295,999,240,.16274985E-2,.62243E-3,0
STARLINK-37501,2026-119A,2026-06-07T06:00:04.999968,15.82330754,.00017887,97.2829,183.5190,102.8079,146.8369,0,U,69296,999,229,-.14166152E-1,-.2500805E-1,0
STARLINK-37496,2026-119B,2026-06-07T06:00:04.999968,15.81184336,.0000933,97.2836,183.5183,101.8796,145.7182,0,U,69297,999,229,-.59620462E-2,-.1032138E-1,0
STARLINK-37519,2026-119C,2026-06-07T06:00:04.999968,15.81401083,.0001659,97.2834,183.5245,85.8480,174.8086,0,U,69298,999,229,-.45967591E-2,-.824041E-2,0
STARLINK-37455,2026-119D,2026-06-07T06:00:04.999968,15.83180054,.00017755,97.2831,183.5216,80.0686,174.9142,0,U,69299,999,229,-.13439062E-1,-.247424E-1,0
STARLINK-37456,2026-119E,2026-06-07T06:00:04.999968,15.83342916,.00015494,97.2828,183.5251,100.9929,162.4260,0,U,69300,999,229,-.13679562E-1,-.2528219E-1,0
STARLINK-37630,2026-119F,2026-06-07T06:00:04.999968,15.81932097,.00013486,97.2830,183.5272,87.0108,180.4218,0,U,69301,999,245,-.85695941E-2,-.1523638E-1,0
STARLINK-37804,2026-119G,2026-06-07T06:00:04.999968,15.81299946,.00010926,97.2832,183.5275,104.7260,164.7791,0,U,69302,999,245,-.41294784E-2,-.7435E-2,0
STARLINK-37730,2026-119H,2026-06-07T06:00:04.999968,15.83188193,.00015966,97.2831,183.5306,104.1431,172.1977,0,U,69303,999,245,-.13320685E-1,-.2456135E-1,0
STARLINK-37731,2026-119J,2026-06-07T06:00:04.999968,15.81996804,.00019941,97.2832,183.5320,88.0953,190.1816,0,U,69304,999,245,-.87390765E-2,-.1554759E-1,0
STARLINK-37734,2026-119K,2026-06-07T06:00:04.999968,15.83126877,.00015017,97.2833,183.5329,108.2543,174.1343,0,U,69305,999,245,-.13269984E-1,-.2441893E-1,0
STARLINK-37701,2026-119L,2026-06-07T06:00:04.999968,15.82228402,.0001428,97.2833,183.5340,85.6617,199.1770,0,U,69306,999,245,-.10066024E-1,-.1812105E-1,0
STARLINK-37732,2026-119M,2026-06-07T06:00:04.999968,15.82027498,.00018842,97.2834,183.5352,91.9201,195.4295,0,U,69307,999,245,-.88724268E-2,-.1577446E-1,0
STARLINK-37689,2026-119N,2026-06-07T06:00:04.999968,15.83687641,.00013466,97.2831,183.5369,104.5180,187.5478,0,U,69308,999,245,-.12996784E-1,-.245403E-1,0
STARLINK-37619,2026-119P,2026-06-07T06:00:04.999968,15.83299161,.00015586,97.2831,183.5387,98.5096,197.2504,0,U,69309,999,245,-.13224991E-1,-.2452013E-1,0
STARLINK-37794,2026-119Q,2026-06-07T06:00:04.999968,15.85132436,.0001459,97.2830,183.5418,86.4916,217.7646,0,U,69310,999,245,-.12235103E-1,-.2473416E-1,0
STARLINK-37795,2026-119R,2026-06-07T06:00:04.999968,15.85386041,.0001327,97.2829,183.5421,98.6407,207.1291,0,U,69311,999,245,-.12456872E-1,-.2537965E-1,0
STARLINK-37790,2026-119S,2026-06-07T06:00:04.999968,15.85647324,.00014169,97.2827,183.5442,93.4107,216.7596,0,U,69312,999,245,-.12073492E-1,-.2498299E-1,0
STARLINK-37676,2026-119T,2026-06-07T06:00:04.999968,15.86988491,.00012101,97.2831,183.5470,89.3606,227.2423,0,U,69313,999,245,-.11212306E-1,-.2480602E-1,0
STARLINK-37617,2026-119U,2026-06-07T06:00:04.999968,15.87288829,.00012405,97.2831,183.5480,97.8666,222.4291,0,U,69314,999,245,-.11072923E-1,-.2485676E-1,0
